start=new Date('2022-06-01T00:00:00.000Z').valueOf();
sats=[{"RCS_SIZE":"LARGE","PERIOD":"95.593","EPOCH":"2022-05-31T18:16:10.892352","SITE":"AFETR","NORAD_CAT_ID":"47600","ECCENTRICITY":"0.00016310","BSTAR":"0.00000435450000","FILE":"3474435","PERIAPSIS":"546.131","RA_OF_ASC_NODE":"67.3531","APOAPSIS":"548.390","TLE_LINE2":"2 47600  53.0545  67.3531 0001631  62.4160 297.6995 15.06384739 74000","ARG_OF_PERICENTER":"62.4160","MEAN_MOTION_DDOT":"0.0000000000000","SEMIMAJOR_AXIS":"6925.395","CENTER_NAME":"EARTH","ELEMENT_SET_NO":"999","INCLINATION":"53.0545","REF_FRAME":"TEME","REV_AT_EPOCH":"7400","MEAN_ANOMALY":"297.6995","MEAN_MOTION":"15.06384739","DECAY_DATE":null,"MEAN_ELEMENT_THEORY":"SGP4","OBJECT_TYPE":"PAYLOAD","OBJECT_NAME":"STARLINK-2005","EPHEMERIS_TYPE":"0","OBJECT_ID":"2021-009BE","CLASSIFICATION_TYPE":"U","GP_ID":"205038892","TLE_LINE1":"1 47600U 21009BE  22151.76123718 -.00000217  00000-0  43545-5 0  9992","LAUNCH_DATE":"2021-02-04","TIME_SYSTEM":"UTC","COUNTRY_CODE":"US","MEAN_MOTION_DOT":"-0.00000217"},{"EPOCH":"2022-05-31T03:24:28.586592","RCS_SIZE":"LARGE","PERIOD":"95.593","NORAD_CAT_ID":"47601","SITE":"AFETR","BSTAR":"0.00005921400000","ECCENTRICITY":"0.00017100","PERIAPSIS":"546.054","FILE":"3474118","TLE_LINE2":"2 47601  53.0547  70.1695 0001710  51.4491 308.6651 15.06391965 73290","ARG_OF_PERICENTER":"51.4491","RA_OF_ASC_NODE":"70.1695","APOAPSIS":"548.422","SEMIMAJOR_AXIS":"6925.373","MEAN_MOTION_DDOT":"0.0000000000000","ELEMENT_SET_NO":"999","CENTER_NAME":"EARTH","REF_FRAME":"TEME","INCLINATION":"53.0547","REV_AT_EPOCH":"7329","MEAN_ANOMALY":"308.6651","DECAY_DATE":null,"MEAN_ELEMENT_THEORY":"SGP4","MEAN_MOTION":"15.06391965","OBJECT_TYPE":"PAYLOAD","OBJECT_NAME":"STARLINK-2006","OBJECT_ID":"2021-009BF","EPHEMERIS_TYPE":"0","GP_ID":"205029047","CLASSIFICATION_TYPE":"U","TLE_LINE1":"1 47601U 21009BF  22151.14199753  .00000600  00000-0  59214-4 0  9991","LAUNCH_DATE":"2021-02-04","MEAN_MOTION_DOT":"0.00000600","TIME_SYSTEM":"UTC","COUNTRY_CODE":"US"},{"OBJECT_ID":"2021-009BG","EPHEMERIS_TYPE":"0","OBJECT_NAME":"STARLINK-2007","OBJECT_TYPE":"PAYLOAD","MEAN_ELEMENT_THEORY":"SGP4","DECAY_DATE":null,"MEAN_MOTION":"15.06395044","MEAN_ANOMALY":"310.2134","REV_AT_EPOCH":"7380","MEAN_MOTION_DOT":"0.00000241","COUNTRY_CODE":"US","TIME_SYSTEM":"UTC","TLE_LINE1":"1 47602U 21009BG  22151.49492406  .00000241  00000-0  35103-4 0  9993","LAUNCH_DATE":"2021-02-04","GP_ID":"205002498","CLASSIFICATION_TYPE":"U","PERIAPSIS":"545.923","FILE":"3473903","BSTAR":"0.00003510300000","ECCENTRICITY":"0.00018860","NORAD_CAT_ID":"47602","SITE":"AFETR","RCS_SIZE":"LARGE","EPOCH":"2022-05-31T11:52:41.438784","PERIOD":"95.592","REF_FRAME":"TEME","INCLINATION":"53.0572","ELEMENT_SET_NO":"999","CENTER_NAME":"EARTH","MEAN_MOTION_DDOT":"0.0000000000000","SEMIMAJOR_AXIS":"6925.364","TLE_LINE2":"2 47602  53.0572  78.5844 0001886  49.9020 310.2134 15.06395044 73805","ARG_OF_PERICENTER":"49.9020","APOAPSIS":"548.535","RA_OF_ASC_NODE":"78.5844"},{"NORAD_CAT_ID":"47603","SITE":"AFETR","PERIOD":"95.593","RCS_SIZE":"LARGE","EPOCH":"2022-05-31T13:45:29.548224","PERIAPSIS":"545.726","FILE":"3474435","BSTAR":"0.00000149350000","ECCENTRICITY":"0.00021760","MEAN_MOTION_DDOT":"0.0000000000000","SEMIMAJOR_AXIS":"6925.368","ARG_OF_PERICENTER":"44.8763","TLE_LINE2":"2 47603  53.0558 108.2258 0002176  44.8763 315.2402 15.06393648 73396","RA_OF_ASC_NODE":"108.2258","APOAPSIS":"548.740","REF_FRAME":"TEME","INCLINATION":"53.0558","ELEMENT_SET_NO":"999","CENTER_NAME":"EARTH","DECAY_DATE":null,"MEAN_ELEMENT_THEORY":"SGP4","MEAN_MOTION":"15.06393648","MEAN_ANOMALY":"315.2402","REV_AT_EPOCH":"7339","OBJECT_ID":"2021-009BH","EPHEMERIS_TYPE":"0","OBJECT_TYPE":"PAYLOAD","OBJECT_NAME":"STARLINK-2008","TLE_LINE1":"1 47603U 21009BH  22151.57325866 -.00000260  00000-0  14935-5 0  9991","LAUNCH_DATE":"2021-02-04","GP_ID":"205038896","CLASSIFICATION_TYPE":"U","MEAN_MOTION_DOT":"-0.00000260","TIME_SYSTEM":"UTC","COUNTRY_CODE":"US"},{"MEAN_MOTION_DDOT":"0.0000000000000","SEMIMAJOR_AXIS":"6925.371","RA_OF_ASC_NODE":"78.5410","APOAPSIS":"548.493","TLE_LINE2":"2 47604  53.0556  78.5410 0001815  42.7824 317.3306 15.06392713 73813","ARG_OF_PERICENTER":"42.7824","INCLINATION":"53.0556","REF_FRAME":"TEME","CENTER_NAME":"EARTH","ELEMENT_SET_NO":"999","SITE":"AFETR","NORAD_CAT_ID":"47604","EPOCH":"2022-05-31T12:03:19.296288","RCS_SIZE":"LARGE","PERIOD":"95.593","FILE":"3473903","PERIAPSIS":"545.979","ECCENTRICITY":"0.00018150","BSTAR":"-0.00003370000000","LAUNCH_DATE":"2021-02-04","TLE_LINE1":"1 47604U 21009BJ  22151.50230667 -.00000783  00000-0 -33700-4 0  9990","CLASSIFICATION_TYPE":"U","GP_ID":"205002266","TIME_SYSTEM":"UTC","COUNTRY_CODE":"US","MEAN_MOTION_DOT":"-0.00000783","MEAN_MOTION":"15.06392713","DECAY_DATE":null,"MEAN_ELEMENT_THEORY":"SGP4","REV_AT_EPOCH":"7381","MEAN_ANOMALY":"317.3306","EPHEMERIS_TYPE":"0","OBJECT_ID":"2021-009BJ","OBJECT_TYPE":"PAYLOAD","OBJECT_NAME":"STARLINK-2021"},{"REF_FRAME":"TEME","INCLINATION":"53.0443","ELEMENT_SET_NO":"999","CENTER_NAME":"EARTH","SEMIMAJOR_AXIS":"6677.548","MEAN_MOTION_DDOT":"0.0000137710000","TLE_LINE2":"2 47605  53.0443 358.4727 0001130 310.8485  49.2442 15.91025842 74950","ARG_OF_PERICENTER":"310.8485","APOAPSIS":"300.168","RA_OF_ASC_NODE":"358.4727","PERIAPSIS":"298.658","FILE":"3474435","BSTAR":"0.00027233000000","ECCENTRICITY":"0.00011300","NORAD_CAT_ID":"47605","SITE":"AFETR","RCS_SIZE":"LARGE","PERIOD":"90.508","EPOCH":"2022-05-31T19:52:39.373536","MEAN_MOTION_DOT":"0.00084598","COUNTRY_CODE":"US","TIME_SYSTEM":"UTC","TLE_LINE1":"1 47605U 21009BK  22151.82823349  .00084598  13771-4  27233-3 0  9991","LAUNCH_DATE":"2021-02-04","GP_ID":"205038548","CLASSIFICATION_TYPE":"U","OBJECT_ID":"2021-009BK","EPHEMERIS_TYPE":"0","OBJECT_TYPE":"PAYLOAD","OBJECT_NAME":"STARLINK-2023","MEAN_ELEMENT_THEORY":"SGP4","DECAY_DATE":null,"MEAN_MOTION":"15.91025842","REV_AT_EPOCH":"7495","MEAN_ANOMALY":"49.2442"},{"FILE":"3473903","PERIAPSIS":"546.126","ECCENTRICITY":"0.00015900","BSTAR":"-0.00004989100000","SITE":"AFETR","NORAD_CAT_ID":"47606","PERIOD":"95.592","RCS_SIZE":"LARGE","EPOCH":"2022-05-31T12:08:37.414176","INCLINATION":"53.0563","REF_FRAME":"TEME","CENTER_NAME":"EARTH","ELEMENT_SET_NO":"999","SEMIMAJOR_AXIS":"6925.362","MEAN_MOTION_DDOT":"0.0000000000000","APOAPSIS":"548.328","RA_OF_ASC_NODE":"78.5384","TLE_LINE2":"2 47606  53.0563  78.5384 0001590  54.1763 305.9374 15.06395598 73814","ARG_OF_PERICENTER":"54.1763","EPHEMERIS_TYPE":"0","OBJECT_ID":"2021-009BL","OBJECT_TYPE":"PAYLOAD","OBJECT_NAME":"STARLINK-2024","MEAN_MOTION":"15.06395598","MEAN_ELEMENT_THEORY":"SGP4","DECAY_DATE":null,"REV_AT_EPOCH":"7381","MEAN_ANOMALY":"305.9374","TIME_SYSTEM":"UTC","COUNTRY_CODE":"US","MEAN_MOTION_DOT":"-0.00001024","LAUNCH_DATE":"2021-02-04","TLE_LINE1":"1 47606U 21009BL  22151.50598859 -.00001024  00000-0 -49891-4 0  9999","CLASSIFICATION_TYPE":"U","GP_ID":"205002270"},{"SEMIMAJOR_AXIS":"6925.358","MEAN_MOTION_DDOT":"0.0000000000000","RA_OF_ASC_NODE":"79.8199","APOAPSIS":"548.700","TLE_LINE2":"2 47607  53.0574  79.8199 0002133  43.7263 316.3895 15.06397059 73164","ARG_OF_PERICENTER":"43.7263","INCLINATION":"53.0574","REF_FRAME":"TEME","CENTER_NAME":"EARTH","ELEMENT_SET_NO":"999","SITE":"AFETR","NORAD_CAT_ID":"47607","EPOCH":"2022-05-31T05:14:36.832704","RCS_SIZE":"LARGE","PERIOD":"95.592","FILE":"3474118","PERIAPSIS":"545.745","ECCENTRICITY":"0.00021330","BSTAR":"-0.00005796900000","LAUNCH_DATE":"2021-02-04","TLE_LINE1":"1 47607U 21009BM  22151.21848186 -.00001145  00000-0 -57969-4 0  9998","CLASSIFICATION_TYPE":"U","GP_ID":"205028051","TIME_SYSTEM":"UTC","COUNTRY_CODE":"US","MEAN_MOTION_DOT":"-0.00001145","MEAN_MOTION":"15.06397059","DECAY_DATE":null,"MEAN_ELEMENT_THEORY":"SGP4","REV_AT_EPOCH":"7316","MEAN_ANOMALY":"316.3895","EPHEMERIS_TYPE":"0","OBJECT_ID":"2021-009BM","OBJECT_NAME":"STARLINK-2025","OBJECT_TYPE":"PAYLOAD"},{"REF_FRAME":"TEME","INCLINATION":"53.0538","ELEMENT_SET_NO":"999","CENTER_NAME":"EARTH","MEAN_MOTION_DDOT":"0.0000000000000","SEMIMAJOR_AXIS":"6925.363","TLE_LINE2":"2 47620  53.0538 139.1425 0001750  59.8034 300.3128 15.06395377 71722","ARG_OF_PERICENTER":"59.8034","APOAPSIS":"548.440","RA_OF_ASC_NODE":"139.1425","PERIAPSIS":"546.016","FILE":"3473593","BSTAR":"-0.00001407000000","ECCENTRICITY":"0.00017500","NORAD_CAT_ID":"47620","SITE":"AFETR","RCS_SIZE":"LARGE","PERIOD":"95.592","EPOCH":"2022-05-31T08:49:35.108544","MEAN_MOTION_DOT":"-0.00000491","TIME_SYSTEM":"UTC","COUNTRY_CODE":"US","TLE_LINE1":"1 47620U 21012A   22151.36776746 -.00000491  00000-0 -14070-4 0  9994","LAUNCH_DATE":"2021-02-16","GP_ID":"204994824","CLASSIFICATION_TYPE":"U","OBJECT_ID":"2021-012A","EPHEMERIS_TYPE":"0","OBJECT_NAME":"STARLINK-1528","OBJECT_TYPE":"PAYLOAD","MEAN_ELEMENT_THEORY":"SGP4","DECAY_DATE":null,"MEAN_MOTION":"15.06395377","REV_AT_EPOCH":"7172","MEAN_ANOMALY":"300.3128"},{"BSTAR":"0.00009353800000","ECCENTRICITY":"0.00023570","PERIAPSIS":"545.597","FILE":"3473593","EPOCH":"2022-05-31T08:38:57.147360","RCS_SIZE":"LARGE","PERIOD":"95.592","NORAD_CAT_ID":"47621","SITE":"AFETR","ELEMENT_SET_NO":"999","CENTER_NAME":"EARTH","REF_FRAME":"TEME","INCLINATION":"53.0531","TLE_LINE2":"2 47621  53.0531 139.1831 0002357  39.6513 320.4648 15.06394900 71720","ARG_OF_PERICENTER":"39.6513","RA_OF_ASC_NODE":"139.1831","APOAPSIS":"548.861","SEMIMAJOR_AXIS":"6925.364","MEAN_MOTION_DDOT":"0.0000000000000","OBJECT_NAME":"STARLINK-1609","OBJECT_TYPE":"PAYLOAD","OBJECT_ID":"2021-012B","EPHEMERIS_TYPE":"0","REV_AT_EPOCH":"7172","MEAN_ANOMALY":"320.4648","DECAY_DATE":null,"MEAN_ELEMENT_THEORY":"SGP4","MEAN_MOTION":"15.06394900","MEAN_MOTION_DOT":"0.00001112","TIME_SYSTEM":"UTC","COUNTRY_CODE":"US","GP_ID":"204995327","CLASSIFICATION_TYPE":"U","TLE_LINE1":"1 47621U 21012B   22151.36038365  .00001112  00000-0  93538-4 0  9998","LAUNCH_DATE":"2021-02-16"}];
